{"fetched_at":"2026-03-30T13:17:50Z","count":15418,"tles":[{"name":"SKYKRAFT-3D","line1":"1 57956U 23084BZ  26087.68915783  .00092570  00000+0  87378-3 0  9997","line2":"2 57956  97.6012 239.5915 0004484 206.9607 153.1421 15.66730484142517","category":"Other"}]}